KUZGTU 1 (RS47S)        
1 57217U 23091AV  26188.76513166  .00007809  00000+0  26817-3 0  9997
2 57217  97.5051 253.4598 0010871  32.1722 328.0180 15.30355575167523
SONATE-2                
1 59112U 24043Q   26188.47896187  .00031562  00000+0  38565-3 0  9992
2 59112  97.5550 340.1459 0007012 130.6505 229.5363 15.60352887131052
MESAT1                  
1 60209U 24125G   26188.06446918  .00053923  00000+0  53362-3 0  9997
2 60209  97.2265  46.0297 0010913 137.1640 223.0472 15.65621235112677
OOV-CUBE (TUBSAT-30)    
1 60240U 24128F   26187.41788603  .00002062  00000+0  16592-3 0  9995
2 60240  61.9939 158.5121 0042205 138.0070 222.4270 15.02848993109004
COLIBRI-S (RS67S)       
1 61746U 24199M   26188.74531921  .00015722  00000+0  29563-3 0  9990
2 61746  97.2968  62.7953 0008003 188.9836 171.1273 15.48620755140597
HORS 3 (RS81S)          
1 61753U 24199U   26188.73712627  .00027207  00000+0  38454-3 0  9991
2 61753  97.2947  65.0048 0006155 180.2357 179.8896 15.56497445140753
HORS 4 (RS82S)          
1 61754U 24199V   26188.76048625  .00039037  00000+0  45084-3 0  9996
2 61754  97.2888  66.3708 0006121 169.8027 190.3356 15.61790156140856
SIT-2086                
1 61764U 24199AF  26188.74036837  .00027468  00000+0  41593-3 0  9993
2 61764  97.2905  65.4131 0007375 167.7970 192.3464 15.54603791137626
HYPERVIEW 1G (RS66S)    
1 61772U 24199AP  26188.66040522  .00189675  00000+0  88452-3 0  9993
2 61772  97.2825  69.5050 0007232 167.7044 192.4403 15.82778784137906
ALTAIR (RS65S)          
1 61779U 24199AW  26188.74718019  .00005114  00000+0  14143-3 0  9993
2 61779  97.3006  57.9647 0011299 225.3212 134.7113 15.37412257140275
ASRTU-1 (AO-123)        
1 61781U 24199AY  26188.75370323  .00005292  00000+0  15305-3 0  9997
2 61781  97.2977  57.2401 0012294 229.3502 130.6674 15.35979646137087
SAMSAT-IONOSPHERE (RS7*)
1 61784U 24199BB  26188.73357590  .00033414  00000+0  42013-3 0  9992
2 61784  97.2912  65.1278 0008266 185.5457 174.5709 15.59572470140760
RTU MIREA 1 (RS51S)     
1 61785U 24199BC  26188.77339378  .00046165  00000+0  49678-3 0  9992
2 61785  97.2899  66.1135 0008411 179.2536 180.8737 15.63558981137682
TEVEL2-4                
1 63213U 25052D   26188.19567571  .00013726  00000+0  40159-3 0  9995
2 63213  97.3872  84.6269 0004183  68.1516 292.0172 15.35364717 73185
TEVEL2-5                
1 63214U 25052E   26188.67475235  .00013404  00000+0  39439-3 0  9996
2 63214  97.3872  85.0494 0004186  68.0190 292.1498 15.35192497 73255
TEVEL2-6                
1 63215U 25052F   26188.68754980  .00012675  00000+0  37352-3 0  9996
2 63215  97.3876  85.0469 0004074  70.8797 289.2887 15.35157027 73251
TEVEL2-1                
1 63217U 25052H   26187.68057351  .00015226  00000+0  45647-3 0  9996
2 63217  97.3844  83.6383 0004748  76.8203 283.3570 15.34567986 73086
TEVEL2-3                
1 63218U 25052J   26188.13090574  .00013975  00000+0  41826-3 0  9996
2 63218  97.3851  84.1135 0004506  77.8905 282.2843 15.34642806 73152
TEVEL2-2                
1 63219U 25052K   26188.13720452  .00013555  00000+0  40642-3 0  9991
2 63219  97.3844  84.0980 0004750  77.1057 283.0716 15.34592056 73153
OTP-2                   
1 63235U 25052AB  26188.18590456  .00005199  00000+0  21569-3 0  9995
2 63235  97.3841  80.3179 0008297  92.6195 267.5993 15.24265879 72918
TEVEL2-9                
1 63237U 25052AD  26187.68368611  .00013872  00000+0  44317-3 0  9990
2 63237  97.3912  82.9767 0008199  80.0094 280.2072 15.32543225 73015
TEVEL2-7                
1 63238U 25052AE  26188.18557546  .00012392  00000+0  39993-3 0  9994
2 63238  97.3911  83.3851 0008266  78.8500 281.3671 15.32244294 73084
TEVEL2-8                
1 63239U 25052AF  26188.19402064  .00012154  00000+0  39250-3 0  9992
2 63239  97.3910  83.3699 0008234  79.0652 281.1516 15.32229283 73087
INNOSAT 16 (RS92S7)     
1 64878U 25155C   26188.72902617  .00004247  00000+0  16931-3 0  9999
2 64878  97.4576 155.7951 0012389 110.6641 249.5926 15.25683455 83808
GEOSCAN 6 (RS92S6)      
1 64879U 25155D   26188.77848903  .00007191  00000+0  24570-3 0  9991
2 64879  97.4566 157.4162 0009987 102.9015 257.3342 15.30556496 83911
GEOSCAN 1 (RS92S1)      
1 64880U 25155E   26188.77265334  .00007270  00000+0  24356-3 0  9994
2 64880  97.4563 157.5767 0009900 102.9517 257.2830 15.31193098 83922
239ALFEROV (RS61S)      
1 64881U 25155F   26188.77728484  .00009945  00000+0  30885-3 0  9990
2 64881  97.4563 158.2139 0009637 102.4395 257.7926 15.33525408 83961
GEOSCAN 2 (RS92S2)      
1 64890U 25155Q   26188.76277843  .00007461  00000+0  24792-3 0  9998
2 64890  97.4562 157.7273 0009264  92.7361 267.4940 15.31451973 83937
GEOSCAN 5 (RS92S5)      
1 64891U 25155R   26188.76208523  .00009233  00000+0  28425-3 0  9994
2 64891  97.4555 158.3439 0008611 106.2522 253.9668 15.33835518 83970
GEOSCAN 4 (RS92S4)      
1 64892U 25155S   26188.74415206  .00010372  00000+0  31735-3 0  9995
2 64892  97.4559 158.3803 0008573 106.2132 254.0054 15.33998161 83979
