OBJECT_NAME,OBJECT_ID,EPOCH,MEAN_MOTION,ECCENTRICITY,INCLINATION,RA_OF_ASC_NODE,ARG_OF_PERICENTER,MEAN_ANOMALY,EPHEMERIS_TYPE,CLASSIFICATION_TYPE,NORAD_CAT_ID,ELEMENT_SET_NO,REV_AT_EPOCH,BSTAR,MEAN_MOTION_DOT,MEAN_MOTION_DDOT
KUZGTU 1 (RS47S),2023-091AV,2026-07-07T18:21:47.375424,15.30355575,.0010871,97.5051,253.4598,32.1722,328.0180,0,U,57217,999,16752,.26817E-3,.7809E-4,0
SONATE-2,2024-043Q,2026-07-07T11:29:42.305568,15.60352887,.00070123,97.5550,340.1459,130.6505,229.5363,0,U,59112,999,13105,.38565117E-3,.31562E-3,0
MESAT1,2024-125G,2026-07-07T01:32:50.137152,15.65621235,.00109133,97.2265,46.0297,137.1640,223.0472,0,U,60209,999,11267,.53362344E-3,.53923E-3,0
OOV-CUBE (TUBSAT-30),2024-128F,2026-07-06T10:01:45.352992,15.02848993,.00422051,61.9939,158.5121,138.0070,222.4270,0,U,60240,999,10900,.16592493E-3,.2062E-4,0
COLIBRI-S (RS67S),2024-199M,2026-07-07T17:53:15.579744,15.48620755,.0008003,97.2968,62.7953,188.9836,171.1273,0,U,61746,999,14059,.29563E-3,.15722E-3,0
HORS 3 (RS81S),2024-199U,2026-07-07T17:41:27.709728,15.56497445,.0006155,97.2947,65.0048,180.2357,179.8896,0,U,61753,999,14075,.38454E-3,.27207E-3,0
HORS 4 (RS82S),2024-199V,2026-07-07T18:15:06.012000,15.61790156,.0006121,97.2888,66.3708,169.8027,190.3356,0,U,61754,999,14085,.45084E-3,.39037E-3,0
SIT-2086,2024-199AF,2026-07-07T17:46:07.827168,15.54603791,.0007375,97.2905,65.4131,167.7970,192.3464,0,U,61764,999,13762,.41593E-3,.27468E-3,0
HYPERVIEW 1G (RS66S),2024-199AP,2026-07-07T15:50:59.011008,15.82778784,.0007232,97.2825,69.5050,167.7044,192.4403,0,U,61772,999,13790,.88452E-3,.189675E-2,0
ALTAIR (RS65S),2024-199AW,2026-07-07T17:55:56.368416,15.37412257,.0011299,97.3006,57.9647,225.3212,134.7113,0,U,61779,999,14027,.14143E-3,.5114E-4,0
ASRTU-1 (AO-123),2024-199AY,2026-07-07T18:05:19.959072,15.35979646,.0012294,97.2977,57.2401,229.3502,130.6674,0,U,61781,999,13708,.15305E-3,.5292E-4,0
SAMSAT-IONOSPHERE (RS75S),2024-199BB,2026-07-07T17:36:20.957760,15.59572470,.0008266,97.2912,65.1278,185.5457,174.5709,0,U,61784,999,14076,.42013E-3,.33414E-3,0
RTU MIREA 1 (RS51S),2024-199BC,2026-07-07T18:33:41.222592,15.63558981,.0008411,97.2899,66.1135,179.2536,180.8737,0,U,61785,999,13768,.49678E-3,.46165E-3,0
TEVEL2-4,2025-052D,2026-07-07T04:41:46.381344,15.35364717,.00041832,97.3872,84.6269,68.1516,292.0172,0,U,63213,999,7318,.40159497E-3,.13726E-3,0
TEVEL2-5,2025-052E,2026-07-07T16:11:38.603040,15.35192497,.0004186,97.3872,85.0494,68.0190,292.1498,0,U,63214,999,7325,.39439E-3,.13404E-3,0
TEVEL2-6,2025-052F,2026-07-07T16:30:04.302720,15.35157027,.0004074,97.3876,85.0469,70.8797,289.2887,0,U,63215,999,7325,.37352E-3,.12675E-3,0
TEVEL2-1,2025-052H,2026-07-06T16:20:01.551264,15.34567986,.0004748,97.3844,83.6383,76.8203,283.3570,0,U,63217,999,7308,.45647174E-3,.15226E-3,0
TEVEL2-3,2025-052J,2026-07-07T03:08:30.255936,15.34642806,.00045064,97.3851,84.1135,77.8905,282.2843,0,U,63218,999,7315,.41825812E-3,.13975E-3,0
TEVEL2-2,2025-052K,2026-07-07T03:17:34.470528,15.34592056,.00047508,97.3844,84.0980,77.1057,283.0716,0,U,63219,999,7315,.40641886E-3,.13555E-3,0
OTP-2,2025-052AB,2026-07-07T04:27:42.153984,15.24265879,.00082973,97.3841,80.3179,92.6195,267.5993,0,U,63235,999,7291,.21568545E-3,.5199E-4,0
TEVEL2-9,2025-052AD,2026-07-06T16:24:30.479904,15.32543225,.0008199,97.3912,82.9767,80.0094,280.2072,0,U,63237,999,7301,.44317011E-3,.13872E-3,0
TEVEL2-7,2025-052AE,2026-07-07T04:27:13.719744,15.32244294,.00082662,97.3911,83.3851,78.8500,281.3671,0,U,63238,999,7308,.39992548E-3,.12392E-3,0
TEVEL2-8,2025-052AF,2026-07-07T04:39:23.383296,15.32229283,.00082344,97.3910,83.3699,79.0652,281.1516,0,U,63239,999,7308,.39250434E-3,.12154E-3,0
INNOSAT 16 (RS92S7),2025-155C,2026-07-07T17:29:47.861088,15.25683455,.0012389,97.4576,155.7951,110.6641,249.5926,0,U,64878,999,8380,.16931E-3,.4247E-4,0
GEOSCAN 6 (RS92S6),2025-155D,2026-07-07T18:41:01.452192,15.30556496,.0009987,97.4566,157.4162,102.9015,257.3342,0,U,64879,999,8391,.2457E-3,.7191E-4,0
GEOSCAN 1 (RS92S1),2025-155E,2026-07-07T18:32:37.248576,15.31193098,.00099,97.4563,157.5767,102.9517,257.2830,0,U,64880,999,8392,.24356E-3,.727E-4,0
239ALFEROV (RS61S),2025-155F,2026-07-07T18:39:17.410176,15.33525408,.0009637,97.4563,158.2139,102.4395,257.7926,0,U,64881,999,8396,.30885E-3,.9945E-4,0
GEOSCAN 2 (RS92S2),2025-155Q,2026-07-07T18:18:24.056352,15.31451973,.0009264,97.4562,157.7273,92.7361,267.4940,0,U,64890,999,8393,.24792E-3,.7461E-4,0
GEOSCAN 5 (RS92S5),2025-155R,2026-07-07T18:17:24.163872,15.33835518,.0008611,97.4555,158.3439,106.2522,253.9668,0,U,64891,999,8397,.28425E-3,.9233E-4,0
GEOSCAN 4 (RS92S4),2025-155S,2026-07-07T17:51:34.737984,15.33998161,.0008573,97.4559,158.3803,106.2132,254.0054,0,U,64892,999,8397,.31735E-3,.10372E-3,0
